
2021/02/28 02:53
KSJC 280253Z 34010KT 10SM FEW080 SCT120 12/04 A3013 RMK AO2 SLP201 T01220039 53009
